[
    {
        "Altitude(m)": 583005.2850707952,
        "Argument of Periapsis(deg)": -0.015068773855314936,
        "Eccentricity": 0.0,
        "Inclination(deg)": 97.0,
        "Latitude(deg)": -50.465289787069096,
        "Longitude(deg)": -93.04461945206069,
        "Mean Anomaly(deg)": 309.28529551279166,
        "RAAN(deg)": 0.003964702412340513,
        "Satellite Name": "Starlink Shell 3 1630",
        "Satellite Number": 1630,
        "Semi-Major Axis(m)": 6938478.169268562,
        "Time(s)": 380
    },
    {
        "Altitude(m)": 582762.0655170282,
        "Argument of Periapsis(deg)": -0.015465320535717962,
        "Eccentricity": 0.0,
        "Inclination(deg)": 97.0,
        "Latitude(deg)": -49.853263298829205,
        "Longitude(deg)": -93.27038010052682,
        "Mean Anomaly(deg)": 309.9107717104967,
        "RAAN(deg)": 0.0040690366863494745,
        "Satellite Name": "Starlink Shell 3 1630",
        "Satellite Number": 1630,
        "Semi-Major Axis(m)": 6938478.169268562,
        "Time(s)": 390
    },
    {
        "Altitude(m)": 582517.3770655546,
        "Argument of Periapsis(deg)": -0.015861867216120987,
        "Eccentricity": 0.0,
        "Inclination(deg)": 97.0,
        "Latitude(deg)": -49.24086110182859,
        "Longitude(deg)": -93.49156192348312,
        "Mean Anomaly(deg)": 310.53624790820174,
        "RAAN(deg)": 0.004173370960358435,
        "Satellite Name": "Starlink Shell 3 1630",
        "Satellite Number": 1630,
        "Semi-Major Axis(m)": 6938478.169268562,
        "Time(s)": 400
    },
    {
        "Altitude(m)": 582271.3168653691,
        "Argument of Periapsis(deg)": -0.01625841389652401,
        "Eccentricity": 0.0,
        "Inclination(deg)": 97.0,
        "Latitude(deg)": -48.628095585859,
        "Longitude(deg)": -93.70837101360914,
        "Mean Anomaly(deg)": 311.1617241059068,
        "RAAN(deg)": 0.004277705234367395,
        "Satellite Name": "Starlink Shell 3 1630",
        "Satellite Number": 1630,
        "Semi-Major Axis(m)": 6938478.169268562,
        "Time(s)": 410
    },
    {
        "Altitude(m)": 582023.9825169797,
        "Argument of Periapsis(deg)": -0.016654960576927034,
        "Eccentricity": 0.0,
        "Inclination(deg)": 97.0,
        "Latitude(deg)": -48.014978446927394,
        "Longitude(deg)": -93.92100233225935,
        "Mean Anomaly(deg)": 311.7872003036118,
        "RAAN(deg)": 0.0043820395083763565,
        "Satellite Name": "Starlink Shell 3 1630",
        "Satellite Number": 1630,
        "Semi-Major Axis(m)": 6938478.169268562,
        "Time(s)": 420
    },
    {
        "Altitude(m)": 581775.4720290313,
        "Argument of Periapsis(deg)": -0.01705150725733006,
        "Eccentricity": 0.0,
        "Inclination(deg)": 97.0,
        "Latitude(deg)": -47.401520739481455,
        "Longitude(deg)": -94.12964001695619,
        "Mean Anomaly(deg)": 312.41267650131687,
        "RAAN(deg)": 0.004486373782385317,
        "Satellite Name": "Starlink Shell 3 1630",
        "Satellite Number": 1630,
        "Semi-Major Axis(m)": 6938478.169268562,
        "Time(s)": 430
    },
    {
        "Altitude(m)": 581525.8837746662,
        "Argument of Periapsis(deg)": -0.017448053937733084,
        "Eccentricity": 0.0,
        "Inclination(deg)": 97.0,
        "Latitude(deg)": -46.787732924306866,
        "Longitude(deg)": -94.33445762280297,
        "Mean Anomaly(deg)": 313.0381526990219,
        "RAAN(deg)": 0.004590708056394278,
        "Satellite Name": "Starlink Shell 3 1630",
        "Satellite Number": 1630,
        "Semi-Major Axis(m)": 6938478.169268562,
        "Time(s)": 440
    },
    {
        "Altitude(m)": 581275.3164476695,
        "Argument of Periapsis(deg)": -0.017844600618136107,
        "Eccentricity": 0.0,
        "Inclination(deg)": 97.0,
        "Latitude(deg)": -46.17362491250155,
        "Longitude(deg)": -94.53561981682721,
        "Mean Anomaly(deg)": 313.66362889672695,
        "RAAN(deg)": 0.0046950423304032395,
        "Satellite Name": "Starlink Shell 3 1630",
        "Satellite Number": 1630,
        "Semi-Major Axis(m)": 6938478.169268562,
        "Time(s)": 450
    },
    {
        "Altitude(m)": 581023.8690184376,
        "Argument of Periapsis(deg)": -0.018241147298539134,
        "Eccentricity": 0.0,
        "Inclination(deg)": 97.0,
        "Latitude(deg)": -45.55920610589383,
        "Longitude(deg)": -94.73328250500207,
        "Mean Anomaly(deg)": 314.289105094432,
        "RAAN(deg)": 0.0047993766044122,
        "Satellite Name": "Starlink Shell 3 1630",
        "Satellite Number": 1630,
        "Semi-Major Axis(m)": 6938478.169268562,
        "Time(s)": 460
    },
    {
        "Altitude(m)": 580771.6406897468,
        "Argument of Periapsis(deg)": -0.018637693978942157,
        "Eccentricity": 0.0,
        "Inclination(deg)": 97.0,
        "Latitude(deg)": -44.94448543423282,
        "Longitude(deg)": -94.9275929097581,
        "Mean Anomaly(deg)": 314.9145812921371,
        "RAAN(deg)": 0.00490371087842116,
        "Satellite Name": "Starlink Shell 3 1630",
        "Satellite Number": 1630,
        "Semi-Major Axis(m)": 6938478.169268562,
        "Time(s)": 470
    },
    {
        "Altitude(m)": 580518.7308523908,
        "Argument of Periapsis(deg)": -0.019034240659345183,
        "Eccentricity": 0.0,
        "Inclination(deg)": 97.0,
        "Latitude(deg)": -44.32947138944124,
        "Longitude(deg)": -95.11869111529941,
        "Mean Anomaly(deg)": 315.5400574898421,
        "RAAN(deg)": 0.0050080451524301215,
        "Satellite Name": "Starlink Shell 3 1630",
        "Satellite Number": 1630,
        "Semi-Major Axis(m)": 6938478.169268562,
        "Time(s)": 480
    },
    {
        "Altitude(m)": 580265.2390406624,
        "Argument of Periapsis(deg)": -0.019430787339748207,
        "Eccentricity": 0.0,
        "Inclination(deg)": 97.0,
        "Latitude(deg)": -43.714172057196436,
        "Longitude(deg)": -95.30671005896461,
        "Mean Anomaly(deg)": 316.16553368754717,
        "RAAN(deg)": 0.005112379426439082,
        "Satellite Name": "Starlink Shell 3 1630",
        "Satellite Number": 1630,
        "Semi-Major Axis(m)": 6938478.169268562,
        "Time(s)": 490
    },
    {
        "Altitude(m)": 580011.2648877256,
        "Argument of Periapsis(deg)": -0.019827334020151237,
        "Eccentricity": 0.0,
        "Inclination(deg)": 97.0,
        "Latitude(deg)": -43.09859514607613,
        "Longitude(deg)": -95.49177548510768,
        "Mean Anomaly(deg)": 316.7910098852522,
        "RAAN(deg)": 0.005216713700448044,
        "Satellite Name": "Starlink Shell 3 1630",
        "Satellite Number": 1630,
        "Semi-Major Axis(m)": 6938478.169268562,
        "Time(s)": 500
    },
    {
        "Altitude(m)": 579756.9080808833,
        "Argument of Periapsis(deg)": -0.020223880700554257,
        "Eccentricity": 0.0,
        "Inclination(deg)": 97.0,
        "Latitude(deg)": -42.48274801447906,
        "Longitude(deg)": -95.67400737762043,
        "Mean Anomaly(deg)": 317.41648608295725,
        "RAAN(deg)": 0.005321047974457004,
        "Satellite Name": "Starlink Shell 3 1630",
        "Satellite Number": 1630,
        "Semi-Major Axis(m)": 6938478.169268562,
        "Time(s)": 510
    },
    {
        "Altitude(m)": 579502.2683168022,
        "Argument of Periapsis(deg)": -0.020620427380957283,
        "Eccentricity": 0.0,
        "Inclination(deg)": 97.0,
        "Latitude(deg)": -41.866637695516225,
        "Longitude(deg)": -95.85351984827642,
        "Mean Anomaly(deg)": 318.0419622806623,
        "RAAN(deg)": 0.005425382248465965,
        "Satellite Name": "Starlink Shell 3 1630",
        "Satellite Number": 1630,
        "Semi-Major Axis(m)": 6938478.169268562,
        "Time(s)": 520
    },
    {
        "Altitude(m)": 579247.4452566397,
        "Argument of Periapsis(deg)": -0.021016974061360306,
        "Eccentricity": 0.0,
        "Inclination(deg)": 97.0,
        "Latitude(deg)": -41.25027092004349,
        "Longitude(deg)": -96.03042099642401,
        "Mean Anomaly(deg)": 318.66743847836733,
        "RAAN(deg)": 0.005529716522474927,
        "Satellite Name": "Starlink Shell 3 1630",
        "Satellite Number": 1630,
        "Semi-Major Axis(m)": 6938478.169268562,
        "Time(s)": 530
    },
    {
        "Altitude(m)": 578992.538481162,
        "Argument of Periapsis(deg)": -0.021413520741763333,
        "Eccentricity": 0.0,
        "Inclination(deg)": 97.0,
        "Latitude(deg)": -40.63365413799181,
        "Longitude(deg)": -96.2048142553042,
        "Mean Anomaly(deg)": 319.29291467607237,
        "RAAN(deg)": 0.005634050796483887,
        "Satellite Name": "Starlink Shell 3 1630",
        "Satellite Number": 1630,
        "Semi-Major Axis(m)": 6938478.169268562,
        "Time(s)": 540
    },
    {
        "Altitude(m)": 578737.6474458551,
        "Argument of Periapsis(deg)": -0.021810067422166356,
        "Eccentricity": 0.0,
        "Inclination(deg)": 97.0,
        "Latitude(deg)": -40.016793538138344,
        "Longitude(deg)": -96.37679820141712,
        "Mean Anomaly(deg)": 319.9183908737774,
        "RAAN(deg)": 0.005738385070492848,
        "Satellite Name": "Starlink Shell 3 1630",
        "Satellite Number": 1630,
        "Semi-Major Axis(m)": 6938478.169268562,
        "Time(s)": 550
    },
    {
        "Altitude(m)": 578482.8714360391,
        "Argument of Periapsis(deg)": -0.022206614102569383,
        "Eccentricity": 0.0,
        "Inclination(deg)": 97.0,
        "Latitude(deg)": -39.39969506644474,
        "Longitude(deg)": -96.54646634178675,
        "Mean Anomaly(deg)": 320.54386707148245,
        "RAAN(deg)": 0.005842719344501809,
        "Satellite Name": "Starlink Shell 3 1630",
        "Satellite Number": 1630,
        "Semi-Major Axis(m)": 6938478.169268562,
        "Time(s)": 560
    }
]